$$SOE
2459580.500000000, A.D. 2022-Jan-01 00:00:00.0000, -4.274600886935204E+08, 3.368033151447704E+08, 6.010665501094908E+05,
2459587.500000000, A.D. 2022-Jan-08 00:00:00.0000, -4.324653256166568E+08, 3.296653241156362E+08, -4.554515471103787E+04,
2459594.500000000, A.D. 2022-Jan-15 00:00:00.0000, -4.373400586091930E+08, 3.224278128468683E+08, -6.921418532315344E+05,
2459601.500000000, A.D. 2022-Jan-22 00:00:00.0000, -4.420824904427602E+08, 3.150927281104354E+08, -1.338528194141313E+06,
2459608.500000000, A.D. 2022-Jan-29 00:00:00.0000, -4.466908376623808E+08, 3.076620461110846E+08, -1.984507775746912E+06,
2459615.500000000, A.D. 2022-Feb-05 00:00:00.0000, -4.511633329217382E+08, 3.001377722854685E+08, -2.629882976593405E+06,
2459622.500000000, A.D. 2022-Feb-12 00:00:00.0000, -4.554982251662270E+08, 2.925219400476589E+08, -3.274455071370572E+06,
2459629.500000000, A.D. 2022-Feb-19 00:00:00.0000, -4.596937789886753E+08, 2.848166108477597E+08, -3.918024317002907E+06,
2459636.500000000, A.D. 2022-Feb-26 00:00:00.0000, -4.637482744709571E+08, 2.770238748195752E+08, -4.560389947990760E+06,
2459643.500000000, A.D. 2022-Mar-05 00:00:00.0000, -4.676600073540111E+08, 2.691458514002740E+08, -5.201350146378249E+06,
2459650.500000000, A.D. 2022-Mar-12 00:00:00.0000, -4.714272893159832E+08, 2.611846898563686E+08, -5.840702012439892E+06,
2459657.500000000, A.D. 2022-Mar-19 00:00:00.0000, -4.750484482888372E+08, 2.531425697442667E+08, -6.478241540711373E+06,
2459664.500000000, A.D. 2022-Mar-26 00:00:00.0000, -4.785218287922263E+08, 2.450217012997456E+08, -7.113763604284525E+06,
2459671.500000000, A.D. 2022-Apr-02 00:00:00.0000, -4.818457922177980E+08, 2.368243257007322E+08, -7.747061958494097E+06,
2459678.500000000, A.D. 2022-Apr-09 00:00:00.0000, -4.850187167926562E+08, 2.285527152082685E+08, -8.377929288836122E+06,
2459685.500000000, A.D. 2022-Apr-16 00:00:00.0000, -4.880389968655116E+08, 2.202091738394988E+08, -9.006157282653868E+06,
2459692.500000000, A.D. 2022-Apr-23 00:00:00.0000, -4.909050427853787E+08, 2.117960396564242E+08, -9.631536519811183E+06,
2459699.500000000, A.D. 2022-Apr-30 00:00:00.0000, -4.936152832447047E+08, 2.033156864250349E+08, -1.025385619456410E+07,
2459706.500000000, A.D. 2022-May-07 00:00:00.0000, -4.961681670251189E+08, 1.947705226716316E+08, -1.087290411100150E+07,
2459713.500000000, A.D. 2022-May-14 00:00:00.0000, -4.985621627560153E+08, 1.861629911737000E+08, -1.148846683116227E+07,
2459720.500000000, A.D. 2022-May-21 00:00:00.0000, -5.007957587179431E+08, 1.774955696424863E+08, -1.210032972757736E+07,
2459727.500000000, A.D. 2022-May-28 00:00:00.0000, -5.028674631715273E+08, 1.687707716377973E+08, -1.270827697485250E+07,
2459734.500000000, A.D. 2022-Jun-04 00:00:00.0000, -5.047758049362441E+08, 1.599911474018866E+08, -1.331209153138856E+07,
2459741.500000000, A.D. 2022-Jun-11 00:00:00.0000, -5.065193340754110E+08, 1.511592846140614E+08, -1.391155512437571E+07,
2459748.500000000, A.D. 2022-Jun-18 00:00:00.0000, -5.080966226497517E+08, 1.422778090785649E+08, -1.450644824055064E+07,
2459755.500000000, A.D. 2022-Jun-25 00:00:00.0000, -5.095062655112594E+08, 1.333493853117817E+08, -1.509655012814663E+07,
2459762.500000000, A.D. 2022-Jul-02 00:00:00.0000, -5.107468810045232E+08, 1.243767169622181E+08, -1.568163882770621E+07,
2459769.500000000, A.D. 2022-Jul-09 00:00:00.0000, -5.118171111863952E+08, 1.153625472393179E+08, -1.626149125306557E+07,
2459776.500000000, A.D. 2022-Jul-16 00:00:00.0000, -5.127156216202760E+08, 1.063096604327051E+08, -1.683588322890648E+07,
2459783.500000000, A.D. 2022-Jul-23 00:00:00.0000, -5.134411029450481E+08, 9.722088459799954E+07, -1.740458927686954E+07,
2459790.500000000, A.D. 2022-Jul-30 00:00:00.0000, -5.139922741370906E+08, 8.809909205413564E+07, -1.796738243210295E+07,
2459797.500000000, A.D. 2022-Aug-06 00:00:00.0000, -5.143678838680366E+08, 7.894719833973348E+07, -1.852403436727791E+07,
2459804.500000000, A.D. 2022-Aug-13 00:00:00.0000, -5.145667107816135E+08, 6.976816238127126E+07, -1.907431552318424E+07,
2459811.500000000, A.D. 2022-Aug-20 00:00:00.0000, -5.145875642603115E+08, 6.056498736712182E+07, -1.961799514301753E+07,
2459818.500000000, A.D. 2022-Aug-27 00:00:00.0000, -5.144292856161647E+08, 5.134072159887936E+07, -2.015484127607147E+07,
2459825.500000000, A.D. 2022-Sep-03 00:00:00.0000, -5.140907494598786E+08, 4.209845920779808E+07, -2.068462078269799E+07,
2459832.500000000, A.D. 2022-Sep-10 00:00:00.0000, -5.135708651600024E+08, 3.284134075849716E+07, -2.120709934694232E+07,
2459839.500000000, A.D. 2022-Sep-17 00:00:00.0000, -5.128685783644140E+08, 2.357255373630290E+07, -2.172204149986860E+07,
2459846.500000000, A.D. 2022-Sep-24 00:00:00.0000, -5.119828725252109E+08, 1.429533286546561E+07, -2.222921066351936E+07,
2459853.500000000, A.D. 2022-Oct-01 00:00:00.0000, -5.109127701881090E+08, 5.012960234072727E+06, -2.272836923961396E+07,
2459860.500000000, A.D. 2022-Oct-08 00:00:00.0000, -5.096573336394336E+08, -4.271234254414952E+06, -2.321927873791911E+07,
2459867.500000000, A.D. 2022-Oct-15 00:00:00.0000, -5.082156658424184E+08, -1.355387090680761E+07, -2.370169976106245E+07,
2459874.500000000, A.D. 2022-Oct-22 00:00:00.0000, -5.065869138451649E+08, -2.283151843098953E+07, -2.417539178372110E+07,
2459881.500000000, A.D. 2022-Oct-29 00:00:00.0000, -5.047702721648771E+08, -3.210069488938189E+07, -2.464011316790723E+07,
2459888.500000000, A.D. 2022-Nov-05 00:00:00.0000, -5.027649840510386E+08, -4.135786867709477E+07, -2.509562138345803E+07,
2459895.500000000, A.D. 2022-Nov-12 00:00:00.0000, -5.005703425934454E+08, -5.059945826113440E+07, -2.554167315041639E+07,
2459902.500000000, A.D. 2022-Nov-19 00:00:00.0000, -4.981856923963106E+08, -5.982183163886842E+07, -2.597802451591636E+07,
2459909.500000000, A.D. 2022-Nov-26 00:00:00.0000, -4.956104315584539E+08, -6.902130591679971E+07, -2.640443092272751E+07,
2459916.500000000, A.D. 2022-Dec-03 00:00:00.0000, -4.928440137950945E+08, -7.819414702467154E+07, -2.682064728607960E+07,
2459923.500000000, A.D. 2022-Dec-10 00:00:00.0000, -4.898859506564995E+08, -8.733656955003373E+07, -2.722642808171430E+07,
2459930.500000000, A.D. 2022-Dec-17 00:00:00.0000, -4.867358138191789E+08, -9.644473672257990E+07, -2.762152744971316E+07,
2459937.500000000, A.D. 2022-Dec-24 00:00:00.0000, -4.833932373405374E+08, -1.055147606188003E+08, -2.800569932974300E+07,
2459944.500000000, A.D. 2022-Dec-31 00:00:00.0000, -4.798579195195158E+08, -1.145427024843953E+08, -2.837869765195188E+07,
2459951.500000000, A.D. 2023-Jan-07 00:00:00.0000, -4.761296242403241E+08, -1.235245722172244E+08, -2.874027651631331E+07,
2459958.500000000, A.D. 2023-Jan-14 00:00:00.0000, -4.722081837657539E+08, -1.324563265196763E+08, -2.909019013960385E+07,
2459965.500000000, A.D. 2023-Jan-21 00:00:00.0000, -4.680935036250120E+08, -1.413338688995517E+08, -2.942819277054078E+07,
2459972.500000000, A.D. 2023-Jan-28 00:00:00.0000, -4.637855659289811E+08, -1.501530517210361E+08, -2.975403892592829E+07,
2459979.500000000, A.D. 2023-Feb-04 00:00:00.0000, -4.592844313207813E+08, -1.589096772832873E+08, -3.006748368137536E+07,
2459986.500000000, A.D. 2023-Feb-11 00:00:00.0000, -4.545902413546556E+08, -1.675994981262079E+08, -3.036828286775341E+07,
2459993.500000000, A.D. 2023-Feb-18 00:00:00.0000, -4.497032213645082E+08, -1.762182173936747E+08, -3.065619323508646E+07,
2460000.500000000, A.D. 2023-Feb-25 00:00:00.0000, -4.446236835579557E+08, -1.847614894233311E+08, -3.093097262153508E+07,
2460007.500000000, A.D. 2023-Mar-04 00:00:00.0000, -4.393520302321277E+08, -1.932249205511985E+08, -3.119238013558305E+07,
2460014.500000000, A.D. 2023-Mar-11 00:00:00.0000, -4.338887570803335E+08, -2.016040701376181E+08, -3.144017635417417E+07,
2460021.500000000, A.D. 2023-Mar-18 00:00:00.0000, -4.282344565396280E+08, -2.098944518711963E+08, -3.167412354527356E+07,
2460028.500000000, A.D. 2023-Mar-25 00:00:00.0000, -4.223898209725516E+08, -2.180915354053364E+08, -3.189398593744782E+07,
2460035.500000000, A.D. 2023-Apr-01 00:00:00.0000, -4.163556452545344E+08, -2.261907479413451E+08, -3.209953004330626E+07,
2460042.500000000, A.D. 2023-Apr-08 00:00:00.0000, -4.101328293774085E+08, -2.341874745404655E+08, -3.229052488024269E+07,
2460049.500000000, A.D. 2023-Apr-15 00:00:00.0000, -4.037223834001490E+08, -2.420770582788043E+08, -3.246674196454722E+07,
2460056.500000000, A.D. 2023-Apr-22 00:00:00.0000, -3.971254329320459E+08, -2.498548033058727E+08, -3.262795549450460E+07,
2460063.500000000, A.D. 2023-Apr-29 00:00:00.0000, -3.903432224077709E+08, -2.575159785622771E+08, -3.277394278948344E+07,
2460070.500000000, A.D. 2023-May-06 00:00:00.0000, -3.833771179072121E+08, -2.650558203828981E+08, -3.290448467799729E+07,
2460077.500000000, A.D. 2023-May-13 00:00:00.0000, -3.762286104878274E+08, -2.724695348870630E+08, -3.301936581819864E+07,
2460084.500000000, A.D. 2023-May-20 00:00:00.0000, -3.688993197861614E+08, -2.797523006558750E+08, -3.311837501274756E+07,
2460091.500000000, A.D. 2023-May-27 00:00:00.0000, -3.613909976863273E+08, -2.868992717354897E+08, -3.320130553875928E+07,
2460098.500000000, A.D. 2023-Jun-03 00:00:00.0000, -3.537055319891267E+08, -2.939055809488397E+08, -3.326795549648896E+07,
2460105.500000000, A.D. 2023-Jun-10 00:00:00.0000, -3.458449500481491E+08, -3.007663435366696E+08, -3.331812818029572E+07,
2460112.500000000, A.D. 2023-Jun-17 00:00:00.0000, -3.378114222719985E+08, -3.074766611940052E+08, -3.335163248489295E+07,
2460119.500000000, A.D. 2023-Jun-24 00:00:00.0000, -3.296072651587692E+08, -3.140316264521675E+08, -3.336828337142342E+07,
2460126.500000000, A.D. 2023-Jul-01 00:00:00.0000, -3.212349435942179E+08, -3.204263265843378E+08, -3.336790234862247E+07,
2460133.500000000, A.D. 2023-Jul-08 00:00:00.0000, -3.126970740713644E+08, -3.266558462191995E+08, -3.335031774820291E+07,
2460140.500000000, A.D. 2023-Jul-15 00:00:00.0000, -3.039964300920216E+08, -3.327152714996241E+08, -3.331536490870672E+07,
$$EOE